STARLINK-4331           
1 53046U 22077D   24308.48172900  .00000681  00000+0  57595-4 0  9993
2 53046  97.6549 127.3082 0000322 104.6956 255.4304 15.01267683127227
STARLINK-4352           
1 53047U 22077E   24308.46136416 -.00002942  00000+0 -22447-3 0  9995
2 53047  97.6579 127.3322 0000250 299.5573  60.5627 15.01271795127229
STARLINK-4355           
1 53048U 22077F   24308.47432016  .00001316  00000+0  10704-3 0  9997
2 53048  97.6549 127.3113 0001236 221.9487 138.1643 15.01269248127212
STARLINK-4345           
1 53049U 22077G   24308.46667193  .00004780  00000+0  37656-3 0  9996
2 53049  97.6563 127.3088 0000231 115.9991 244.1257 15.01256916127213
STARLINK-4343           
1 53050U 22077H   24308.47222232  .00002982  00000+0  23657-3 0  9998
2 53050  97.6552 127.3099 0002295 220.1017 140.0038 15.01273625127212
STARLINK-4336           
1 53051U 22077J   24308.47407506 -.00000557  00000+0 -38777-4 0  9996
2 53051  97.6557 127.2950 0002220 219.3243 140.7820 15.01268656127216
STARLINK-4341           
1 53052U 22077K   24308.47039281  .00007393  00000+0  57954-3 0  9998
2 53052  97.6554 127.3076 0001389 210.7549 149.3594 15.01263080127212
STARLINK-4337           
1 53053U 22077L   24308.46296516  .00002294  00000+0  18311-3 0  9993
2 53053  97.6574 127.3037 0000333 277.2443  82.8743 15.01269992127216
STARLINK-4339           
1 53054U 22077M   24308.46852173  .00001560  00000+0  12604-3 0  9995
2 53054  97.6565 127.3055 0001511 186.2263 173.8942 15.01265531127212
STARLINK-4338           
1 53055U 22077N   24308.46112061  .00000984  00000+0  81178-4 0  9993
2 53055  97.6586 127.3032 0001038  81.4633 278.6709 15.01267662127214
STARLINK-4314           
1 53056U 22077P   24308.46481943  .00000911  00000+0  75528-4 0  9994
2 53056  97.6571 127.3031 0000538 220.3361 139.7823 15.01265444127214
STARLINK-4252           
1 53057U 22077Q   24308.45741953 -.00000128  00000+0 -53993-5 0  9999
2 53057  97.6582 127.3062 0000839  90.2173 269.9147 15.01260755127215
STARLINK-4317           
1 53058U 22077R   24308.47617628  .00000957  00000+0  79094-4 0  9990
2 53058  97.6546 127.2801 0001150 233.2741 126.8377 15.01268049127213
STARLINK-4320           
1 53059U 22077S   24308.52061252  .00009331  00000+0  72978-3 0  9991
2 53059  97.6567 127.3713 0001825  80.0052 280.1378 15.01277340127222
STARLINK-4305           
1 53060U 22077T   24308.45926499  .00002307  00000+0  18412-3 0  9997
2 53060  97.6595 127.3059 0000186  42.0279 318.0959 15.01268978127218
STARLINK-4308           
1 53061U 22077U   24308.51851706  .00000617  00000+0  52629-4 0  9994
2 53061  97.6577 127.3712 0002078  85.3632 274.7829 15.01267620127228
STARLINK-4311           
1 53062U 22077V   24308.52221155  .00001484  00000+0  12006-3 0  9992
2 53062  97.6579 127.3712 0001045  99.6107 260.5235 15.01277202127220
STARLINK-4307           
1 53063U 22077W   24308.47592423  .00002473  00000+0  19697-3 0  9998
2 53063  97.6550 127.3312 0001608 242.5606 117.5455 15.01271229127222
STARLINK-4313           
1 53064U 22077X   24308.52036646  .00002685  00000+0  21354-3 0  9993
2 53064  97.6582 127.3717 0001727  87.2111 272.9310 15.01269528127229
STARLINK-4312           
1 53065U 22077Y   24308.51481427  .00004869  00000+0  38323-3 0  9994
2 53065  97.6563 127.3689 0002615  79.0645 281.0873 15.01273492127225
STARLINK-4309           
1 53066U 22077Z   24308.51320579  .00003361  00000+0  26599-3 0  9993
2 53066  97.6556 127.3748 0002704  78.6229 281.5299 15.01275042127226
STARLINK-4306           
1 53067U 22077AA  24308.51111043 -.00000418  00000+0 -27895-4 0  9991
2 53067  97.6558 127.3652 0002867  75.3530 284.8012 15.01272988127227
STARLINK-4325           
1 53068U 22077AB  24308.51666144  .00001168  00000+0  95481-4 0  9996
2 53068  97.6565 127.3617 0001988  91.5222 268.6230 15.01274709127223
STARLINK-4323           
1 53069U 22077AC  24308.50741098  .00001392  00000+0  11291-3 0  9993
2 53069  97.6539 127.3603 0003630  64.4880 295.6719 15.01269936127223
STARLINK-4342           
1 53070U 22077AD  24308.51296506  .00012533  00000+0  97812-3 0  9997
2 53070  97.6556 127.3673 0002536  81.7457 278.4055 15.01277773127227
STARLINK-4328           
1 53071U 22077AE  24308.50555956  .00006133  00000+0  48141-3 0  9994
2 53071  97.6540 127.3586 0004213  58.5443 301.6193 15.01277807127225
STARLINK-4344           
1 53072U 22077AF  24308.50185111  .00001840  00000+0  14778-3 0  9996
2 53072  97.6544 127.3698 0003010  55.4944 304.6564 15.01272818127222
STARLINK-4346           
1 53073U 22077AG  24308.50580763  .00003624  00000+0  28651-3 0  9996
2 53073  97.6533 127.3491 0003535  68.4522 291.7078 15.01272831127221
STARLINK-4310           
1 53074U 22077AH  24308.50926328  .00000859  00000+0  71467-4 0  9999
2 53074  97.6560 127.3567 0003325  63.4353 296.7212 15.01266397127225
STARLINK-4348           
1 53075U 22077AJ  24308.43705667  .00003436  00000+0  27184-3 0  9993
2 53075  97.6534 127.2778 0003081  65.2747 294.8798 15.01273839127212
STARLINK-4347           
1 53076U 22077AK  24308.50210114  .00000861  00000+0  71615-4 0  9998
2 53076  97.6547 127.3571 0003632  59.9194 300.2390 15.01268534127224
STARLINK-4315           
1 53077U 22077AL  24308.49630122  .00000587  00000+0  50306-4 0  9991
2 53077  97.6544 127.3422 0002408  54.2220 305.9228 15.01263956127220
STARLINK-4322           
1 53078U 22077AM  24308.50000471  .00000691  00000+0  58388-4 0  9996
2 53078  97.6542 127.3497 0003336  62.3743 297.7819 15.01267245127221
STARLINK-4327           
1 53079U 22077AN  24308.49444834 -.00002250  00000+0 -17047-3 0  9991
2 53079  97.6537 127.3401 0002193  72.7728 287.3736 15.01290617127221
STARLINK-4330           
1 53080U 22077AP  24308.49816283 -.00003087  00000+0 -23595-3 0  9998
2 53080  97.6529 127.3457 0002424  70.1896 289.9589 15.01248305127221
STARLINK-4326           
1 53081U 22077AQ  24308.49839586  .00002465  00000+0  19635-3 0  9997
2 53081  97.6530 127.3291 0002560  46.5837 313.5600 15.01274334127222
STARLINK-4321           
1 53082U 22077AR  24308.49259461  .00003582  00000+0  28326-3 0  9994
2 53082  97.6543 127.3368 0001803  75.3335 284.8089 15.01266667127225
STARLINK-4251           
1 53083U 22077AS  24308.47963035  .00001642  00000+0  13237-3 0  9992
2 53083  97.6549 127.3185 0000698  89.4450 270.6854 15.01269318127223
STARLINK-4319           
1 53084U 22077AT  24308.49074099  .00001832  00000+0  14709-3 0  9994
2 53084  97.6541 127.3342 0001624  92.4079 267.7331 15.01277178127222
STARLINK-4324           
1 53085U 22077AU  24308.48543187  .00000960  00000+0  79277-4 0  9996
2 53085  97.6550 127.3301 0001224  96.7555 263.3809 15.01268190127226
STARLINK-4318           
1 53086U 22077AV  24308.48890512  .00005015  00000+0  39470-3 0  9990
2 53086  97.6547 127.3308 0001711  81.7017 278.4401 15.01263816127223
STARLINK-4329           
1 53087U 22077AW  24308.48704242  .00002797  00000+0  22224-3 0  9998
2 53087  97.6543 127.3203 0001550  92.8130 267.3271 15.01270950127223
STARLINK-4333           
1 53088U 22077AX  24308.48519045 -.00000916  00000+0 -66717-4 0  9993
2 53088  97.6549 127.3259 0001198  91.3061 268.8300 15.01252921127223
STARLINK-4063           
1 53132U 22083A   24308.03349884 -.00001975  00000+0 -10603-3 0  9991
2 53132  53.2170 221.2497 0001780 100.7005 259.4187 15.08826167126997
STARLINK-4154           
1 53133U 22083B   24308.45669959  .00000450  00000+0  46347-4 0  9996
2 53133  53.2165 219.4239 0001431  89.9609 270.1547 15.08847523127042
STARLINK-4150           
1 53134U 22083C   24308.17332977  .00006446  00000+0  42249-3 0  9990
2 53134  53.2172 220.6219 0001275 104.2597 255.8537 15.08860785127017
STARLINK-4023           
1 53135U 22083D   24308.04821770  .00003320  00000+0  22656-3 0  9999
2 53135  53.2171 221.1838 0001291  85.1409 274.9730 15.08845122127988
STARLINK-4152           
1 53136U 22083E   24308.17701837  .00014198  00000+0  90810-3 0  9997
2 53136  53.2160 220.6040 0001542  76.5324 283.5840 15.08851497128009
STARLINK-4145           
1 53137U 22083F   24308.16964839  .00005684  00000+0  37479-3 0  9992
2 53137  53.2160 220.6408 0001440  88.3133 271.8024 15.08856376127019
STARLINK-4141           
1 53138U 22083G   24308.03581181  .00008227  00000+0  53425-3 0  9999
2 53138  53.2164 216.4208 0001169  80.1745 279.9379 15.08849144127839
STARLINK-4185           
1 53139U 22083H   24308.48980225  .00002426  00000+0  17037-3 0  9995
2 53139  53.2171 219.2023 0002069  80.3064 279.8161 15.08867232127061
STARLINK-4170           
1 53140U 22083J   24308.49349107  .00023418  00000+0  14831-2 0  9998
2 53140  53.2170 219.1828 0001460 100.2960 259.8196 15.08876366127069
STARLINK-4103           
1 53141U 22083K   24308.47509127  .00024647  00000+0  15597-2 0  9992
2 53141  53.2161 219.2669 0003063  65.0898 295.0412 15.08875825127065
STARLINK-4101           
1 53142U 22083L   24308.48341322  .00004948  00000+0  32874-3 0  9995
2 53142  53.2177 219.2004 0001404  81.8099 278.3052 15.08841312127071
STARLINK-4102           
1 53143U 22083M   24308.47140450  .00002725  00000+0  18913-3 0  9993
2 53143  53.2166 219.2816 0003580  74.8982 285.2406 15.08870827127063
STARLINK-4100           
1 53144U 22083N   24307.95256661 -.00011441  00000+0 -70288-3 0  9998
2 53144  53.2165 221.6220 0001519  71.8241 288.2916 15.08788633126986
STARLINK-4106           
1 53145U 22083P   24308.46407113  .00022248  00000+0  14114-2 0  9996
2 53145  53.2158 219.3170 0000632 105.3643 254.7419 15.08843985127069
STARLINK-4099           
1 53146U 22083Q   24308.47876959  .00009333  00000+0  60344-3 0  9993
2 53146  53.2158 219.2502 0001410  84.9785 275.1368 15.08857927127063
STARLINK-4094           
1 53147U 22083R   24308.46038397  .00000962  00000+0  78545-4 0  9991
2 53147  53.2163 219.3376 0000830  91.1269 268.9819 15.08829110127718
